{
  "type": "FeatureCollection",
  "features": [
    {
      "type": "Feature",
      "properties": {
        "norad_id": 34350,
        "name": "IRIDIUM 33 DEB",
        "group": "iridium-33-debris",
        "lat": -43.01232707863126,
        "lon": 1.4543792730026628,
        "alt_km": 762.9752856691648,
        "timestamp": "2025-12-07T22:37:43.466376+00:00",
        "meta_object_name": "IRIDIUM 33 DEB",
        "meta_object_id": "1997-051ES",
        "meta_epoch": "2025-12-07T07:57:58.605120",
        "meta_mean_motion": 14.45368778,
        "meta_eccentricity": 0.00222637,
        "meta_inclination": 86.328,
        "meta_ra_of_asc_node": 5.154,
        "meta_arg_of_pericenter": 152.1514,
        "meta_mean_anomaly": 227.8879,
        "meta_ephemeris_type": 0,
        "meta_classification_type": "U",
        "meta_norad_cat_id": 34350,
        "meta_element_set_no": 999,
        "meta_rev_at_epoch": 88215,
        "meta_bstar": 0.00056959331,
        "meta_mean_motion_dot": 2.027e-05,
        "meta_mean_motion_ddot": 0,
        "tle_line1": "1 34350U 97051ES  25341.33192830  .00002027  00000+0  56959-3 0  9998",
        "tle_line2": "2 34350  86.3280   5.1540 0022263 152.1514 227.8879 14.45368778882153"
      },
      "geometry": {
        "type": "Point",
        "coordinates": [
          1.4543792730026628,
          -43.01232707863126
        ]
      }
    },
    {
      "type": "Feature",
      "properties": {
        "norad_id": 34366,
        "name": "IRIDIUM 33 DEB",
        "group": "iridium-33-debris",
        "lat": 44.10398867175913,
        "lon": -132.12789498397018,
        "alt_km": 694.2585695885846,
        "timestamp": "2025-12-07T22:37:43.466387+00:00",
        "meta_object_name": "IRIDIUM 33 DEB",
        "meta_object_id": "1997-051FJ",
        "meta_epoch": "2025-12-07T03:58:16.987296",
        "meta_mean_motion": 14.53982148,
        "meta_eccentricity": 0.00220188,
        "meta_inclination": 86.3702,
        "meta_ra_of_asc_node": 51.7373,
        "meta_arg_of_pericenter": 157.5726,
        "meta_mean_anomaly": 231.6966,
        "meta_ephemeris_type": 0,
        "meta_classification_type": "U",
        "meta_norad_cat_id": 34366,
        "meta_element_set_no": 999,
        "meta_rev_at_epoch": 88101,
        "meta_bstar": 0.0018306625,
        "meta_mean_motion_dot": 7.759e-05,
        "meta_mean_motion_ddot": 0,
        "tle_line1": "1 34366U 97051FJ  25341.16547439  .00007759  00000+0  18307-2 0  9996",
        "tle_line2": "2 34366  86.3702  51.7373 0022018 157.5726 231.6966 14.53982148881018"
      },
      "geometry": {
        "type": "Point",
        "coordinates": [
          -132.12789498397018,
          44.10398867175913
        ]
      }
    },
    {
      "type": "Feature",
      "properties": {
        "norad_id": 34375,
        "name": "IRIDIUM 33 DEB",
        "group": "iridium-33-debris",
        "lat": -47.390506601568426,
        "lon": -179.25788740263255,
        "alt_km": 912.2480093158438,
        "timestamp": "2025-12-07T22:37:43.466397+00:00",
        "meta_object_name": "IRIDIUM 33 DEB",
        "meta_object_id": "1997-051FT",
        "meta_epoch": "2025-12-06T13:07:23.276352",
        "meta_mean_motion": 14.17975687,
        "meta_eccentricity": 0.01028144,
        "meta_inclination": 86.433,
        "meta_ra_of_asc_node": 185.193,
        "meta_arg_of_pericenter": 146.2209,
        "meta_mean_anomaly": 244.0709,
        "meta_ephemeris_type": 0,
        "meta_classification_type": "U",
        "meta_norad_cat_id": 34375,
        "meta_element_set_no": 999,
        "meta_rev_at_epoch": 86624,
        "meta_bstar": 0.00069808059,
        "meta_mean_motion_dot": 1.524e-05,
        "meta_mean_motion_ddot": 0,
        "tle_line1": "1 34375U 97051FT  25340.54679718  .00001524  00000+0  69808-3 0  9990",
        "tle_line2": "2 34375  86.4330 185.1930 0102814 146.2209 244.0709 14.17975687866242"
      },
      "geometry": {
        "type": "Point",
        "coordinates": [
          -179.25788740263255,
          -47.390506601568426
        ]
      }
    },
    {
      "type": "Feature",
      "properties": {
        "norad_id": 34376,
        "name": "IRIDIUM 33 DEB",
        "group": "iridium-33-debris",
        "lat": -81.9170943697893,
        "lon": -18.424744084386383,
        "alt_km": 694.037673583226,
        "timestamp": "2025-12-07T22:37:43.466408+00:00",
        "meta_object_name": "IRIDIUM 33 DEB",
        "meta_object_id": "1997-051FU",
        "meta_epoch": "2025-12-07T06:35:12.679584",
        "meta_mean_motion": 14.6245094,
        "meta_eccentricity": 0.0026551,
        "meta_inclination": 86.2982,
        "meta_ra_of_asc_node": 8.9967,
        "meta_arg_of_pericenter": 185.1534,
        "meta_mean_anomaly": 174.9408,
        "meta_ephemeris_type": 0,
        "meta_classification_type": "U",
        "meta_norad_cat_id": 34376,
        "meta_element_set_no": 999,
        "meta_rev_at_epoch": 87927,
        "meta_bstar": 0.0021909418,
        "meta_mean_motion_dot": 0.00011177,
        "meta_mean_motion_ddot": 0,
        "tle_line1": "1 34376U 97051FU  25341.27445231  .00011177  00000+0  21909-2 0  9997",
        "tle_line2": "2 34376  86.2982   8.9967 0026551 185.1534 174.9408 14.62450940879276"
      },
      "geometry": {
        "type": "Point",
        "coordinates": [
          -18.424744084386383,
          -81.9170943697893
        ]
      }
    },
    {
      "type": "Feature",
      "properties": {
        "norad_id": 34486,
        "name": "IRIDIUM 33 DEB",
        "group": "iridium-33-debris",
        "lat": -76.91890856340603,
        "lon": -1.5169596846572,
        "alt_km": 596.6735430529625,
        "timestamp": "2025-12-07T22:37:43.466419+00:00",
        "meta_object_name": "IRIDIUM 33 DEB",
        "meta_object_id": "1997-051GB",
        "meta_epoch": "2025-12-07T02:13:33.403872",
        "meta_mean_motion": 14.95417405,
        "meta_eccentricity": 0.0013293,
        "meta_inclination": 86.3924,
        "meta_ra_of_asc_node": 14.6301,
        "meta_arg_of_pericenter": 131.1347,
        "meta_mean_anomaly": 257.7745,
        "meta_ephemeris_type": 0,
        "meta_classification_type": "U",
        "meta_norad_cat_id": 34486,
        "meta_element_set_no": 999,
        "meta_rev_at_epoch": 88902,
        "meta_bstar": 0.003126332,
        "meta_mean_motion_dot": 0.00034749,
        "meta_mean_motion_ddot": 0,
        "tle_line1": "1 34486U 97051GB  25341.09274773  .00034749  00000+0  31263-2 0  9994",
        "tle_line2": "2 34486  86.3924  14.6301 0013293 131.1347 257.7745 14.95417405889026"
      },
      "geometry": {
        "type": "Point",
        "coordinates": [
          -1.5169596846572,
          -76.91890856340603
        ]
      }
    },
    {
      "type": "Feature",
      "properties": {
        "norad_id": 34487,
        "name": "IRIDIUM 33 DEB",
        "group": "iridium-33-debris",
        "lat": 58.20918009388307,
        "lon": -171.4785967607273,
        "alt_km": 721.0151152521948,
        "timestamp": "2025-12-07T22:37:43.466430+00:00",
        "meta_object_name": "IRIDIUM 33 DEB",
        "meta_object_id": "1997-051GC",
        "meta_epoch": "2025-12-07T02:13:56.240256",
        "meta_mean_motion": 14.43205284,
        "meta_eccentricity": 0.00323026,
        "meta_inclination": 86.3439,
        "meta_ra_of_asc_node": 14.8083,
        "meta_arg_of_pericenter": 146.192,
        "meta_mean_anomaly": 242.8588,
        "meta_ephemeris_type": 0,
        "meta_classification_type": "U",
        "meta_norad_cat_id": 34487,
        "meta_element_set_no": 999,
        "meta_rev_at_epoch": 88167,
        "meta_bstar": 0.00033824749,
        "meta_mean_motion_dot": 1.164e-05,
        "meta_mean_motion_ddot": 0,
        "tle_line1": "1 34487U 97051GC  25341.09301204  .00001164  00000+0  33825-3 0  9997",
        "tle_line2": "2 34487  86.3439  14.8083 0032302 146.1920 242.8588 14.43205284881678"
      },
      "geometry": {
        "type": "Point",
        "coordinates": [
          -171.4785967607273,
          58.20918009388307
        ]
      }
    },
    {
      "type": "Feature",
      "properties": {
        "norad_id": 34488,
        "name": "IRIDIUM 33 DEB",
        "group": "iridium-33-debris",
        "lat": 58.61911806358969,
        "lon": -45.76573946714118,
        "alt_km": 466.7273113204228,
        "timestamp": "2025-12-07T22:37:43.466441+00:00",
        "meta_object_name": "IRIDIUM 33 DEB",
        "meta_object_id": "1997-051GD",
        "meta_epoch": "2025-12-06T14:55:40.946016",
        "meta_mean_motion": 15.27290051,
        "meta_eccentricity": 0.00149214,
        "meta_inclination": 86.3249,
        "meta_ra_of_asc_node": 308.8374,
        "meta_arg_of_pericenter": 60.0841,
        "meta_mean_anomaly": 300.1886,
        "meta_ephemeris_type": 0,
        "meta_classification_type": "U",
        "meta_norad_cat_id": 34488,
        "meta_element_set_no": 999,
        "meta_rev_at_epoch": 89146,
        "meta_bstar": 0.0068100775,
        "meta_mean_motion_dot": 0.0018679,
        "meta_mean_motion_ddot": 0,
        "tle_line1": "1 34488U 97051GD  25340.62200169  .00186790  00000+0  68101-2 0  9997",
        "tle_line2": "2 34488  86.3249 308.8374 0014921  60.0841 300.1886 15.27290051891466"
      },
      "geometry": {
        "type": "Point",
        "coordinates": [
          -45.76573946714118,
          58.61911806358969
        ]
      }
    }
  ]
}